[
    {
        "Altitude(m)": 712168.6563599041,
        "Argument of Periapsis(deg)": 0.0022780242373254137,
        "Eccentricity": 0.0,
        "Inclination(deg)": 45.0,
        "Latitude(deg)": -31.194675890393178,
        "Longitude(deg)": -122.16090093582653,
        "Mean Anomaly(deg)": 313.2157433294962,
        "RAAN(deg)": 14.997849611708359,
        "Satellite Name": "Constellation 1 85",
        "Satellite Number": 85,
        "Semi-Major Axis(m)": 7083131.272910544,
        "Time(s)": 38
    },
    {
        "Altitude(m)": 712155.1379154922,
        "Argument of Periapsis(deg)": 0.002337972243570819,
        "Eccentricity": 0.0,
        "Inclination(deg)": 45.0,
        "Latitude(deg)": -31.160315951289647,
        "Longitude(deg)": -122.10667409046214,
        "Mean Anomaly(deg)": 313.27644446974614,
        "RAAN(deg)": 14.997793022542787,
        "Satellite Name": "Constellation 1 85",
        "Satellite Number": 85,
        "Semi-Major Axis(m)": 7083131.272910544,
        "Time(s)": 39
    },
    {
        "Altitude(m)": 712141.6138051284,
        "Argument of Periapsis(deg)": 0.0023979202498162246,
        "Eccentricity": 0.0,
        "Inclination(deg)": 45.0,
        "Latitude(deg)": -31.125929353366054,
        "Longitude(deg)": -122.05248919422827,
        "Mean Anomaly(deg)": 313.337145609996,
        "RAAN(deg)": 14.99773643337722,
        "Satellite Name": "Constellation 1 85",
        "Satellite Number": 85,
        "Semi-Major Axis(m)": 7083131.272910544,
        "Time(s)": 40
    },
    {
        "Altitude(m)": 712128.0840765281,
        "Argument of Periapsis(deg)": 0.00245786825606163,
        "Eccentricity": 0.0,
        "Inclination(deg)": 45.0,
        "Latitude(deg)": -31.091516150806836,
        "Longitude(deg)": -121.99834619228217,
        "Mean Anomaly(deg)": 313.3978467502459,
        "RAAN(deg)": 14.997679844211651,
        "Satellite Name": "Constellation 1 85",
        "Satellite Number": 85,
        "Semi-Major Axis(m)": 7083131.272910544,
        "Time(s)": 41
    },
    {
        "Altitude(m)": 712114.5487774144,
        "Argument of Periapsis(deg)": 0.002517816262307036,
        "Eccentricity": 0.0,
        "Inclination(deg)": 45.0,
        "Latitude(deg)": -31.0570763977241,
        "Longitude(deg)": -121.94424502969935,
        "Mean Anomaly(deg)": 313.45854789049577,
        "RAAN(deg)": 14.99762325504608,
        "Satellite Name": "Constellation 1 85",
        "Satellite Number": 85,
        "Semi-Major Axis(m)": 7083131.272910544,
        "Time(s)": 42
    },
    {
        "Altitude(m)": 712101.0079555223,
        "Argument of Periapsis(deg)": 0.0025777642685524413,
        "Eccentricity": 0.0,
        "Inclination(deg)": 45.0,
        "Latitude(deg)": -31.0226101481578,
        "Longitude(deg)": -121.89018565147455,
        "Mean Anomaly(deg)": 313.5192490307457,
        "RAAN(deg)": 14.99756666588051,
        "Satellite Name": "Constellation 1 85",
        "Satellite Number": 85,
        "Semi-Major Axis(m)": 7083131.272910544,
        "Time(s)": 43
    },
    {
        "Altitude(m)": 712087.461658596,
        "Argument of Periapsis(deg)": 0.002637712274797847,
        "Eccentricity": 0.0,
        "Inclination(deg)": 45.0,
        "Latitude(deg)": -30.988117456075685,
        "Longitude(deg)": -121.83616817062013,
        "Mean Anomaly(deg)": 313.57995017099563,
        "RAAN(deg)": 14.99751007671494,
        "Satellite Name": "Constellation 1 85",
        "Satellite Number": 85,
        "Semi-Major Axis(m)": 7083131.272910544,
        "Time(s)": 44
    },
    {
        "Altitude(m)": 712073.9099343964,
        "Argument of Periapsis(deg)": 0.0026976602810432526,
        "Eccentricity": 0.0,
        "Inclination(deg)": 45.0,
        "Latitude(deg)": -30.953598375373872,
        "Longitude(deg)": -121.78219219577744,
        "Mean Anomaly(deg)": 313.6406513112455,
        "RAAN(deg)": 14.997453487549372,
        "Satellite Name": "Constellation 1 85",
        "Satellite Number": 85,
        "Semi-Major Axis(m)": 7083131.272910544,
        "Time(s)": 45
    },
    {
        "Altitude(m)": 712060.35283069,
        "Argument of Periapsis(deg)": 0.0027576082872886585,
        "Eccentricity": 0.0,
        "Inclination(deg)": 45.0,
        "Latitude(deg)": -30.919052959875717,
        "Longitude(deg)": -121.72825783980099,
        "Mean Anomaly(deg)": 313.7013524514954,
        "RAAN(deg)": 14.997396898383803,
        "Satellite Name": "Constellation 1 85",
        "Satellite Number": 85,
        "Semi-Major Axis(m)": 7083131.272910544,
        "Time(s)": 46
    },
    {
        "Altitude(m)": 712046.7903952544,
        "Argument of Periapsis(deg)": 0.0028175562935340644,
        "Eccentricity": 0.0,
        "Inclination(deg)": 45.0,
        "Latitude(deg)": -30.884481263332646,
        "Longitude(deg)": -121.67436504737042,
        "Mean Anomaly(deg)": 313.76205359174537,
        "RAAN(deg)": 14.997340309218233,
        "Satellite Name": "Constellation 1 85",
        "Satellite Number": 85,
        "Semi-Major Axis(m)": 7083131.272910544,
        "Time(s)": 47
    },
    {
        "Altitude(m)": 712033.2226758793,
        "Argument of Periapsis(deg)": 0.00287750429977947,
        "Eccentricity": 0.0,
        "Inclination(deg)": 45.0,
        "Latitude(deg)": -30.8498833394241,
        "Longitude(deg)": -121.62051376308878,
        "Mean Anomaly(deg)": 313.8227547319952,
        "RAAN(deg)": 14.997283720052664,
        "Satellite Name": "Constellation 1 85",
        "Satellite Number": 85,
        "Semi-Major Axis(m)": 7083131.272910544,
        "Time(s)": 48
    },
    {
        "Altitude(m)": 712019.6497203704,
        "Argument of Periapsis(deg)": 0.002937452306024875,
        "Eccentricity": 0.0,
        "Inclination(deg)": 45.0,
        "Latitude(deg)": -30.815259241757214,
        "Longitude(deg)": -121.56670393148275,
        "Mean Anomaly(deg)": 313.8834558722451,
        "RAAN(deg)": 14.997227130887092,
        "Satellite Name": "Constellation 1 85",
        "Satellite Number": 85,
        "Semi-Major Axis(m)": 7083131.272910544,
        "Time(s)": 49
    },
    {
        "Altitude(m)": 712006.0715765267,
        "Argument of Periapsis(deg)": 0.0029974003122702807,
        "Eccentricity": 0.0,
        "Inclination(deg)": 45.0,
        "Latitude(deg)": -30.780609023867044,
        "Longitude(deg)": -121.51293549700355,
        "Mean Anomaly(deg)": 313.944157012495,
        "RAAN(deg)": 14.997170541721525,
        "Satellite Name": "Constellation 1 85",
        "Satellite Number": 85,
        "Semi-Major Axis(m)": 7083131.272910544,
        "Time(s)": 50
    },
    {
        "Altitude(m)": 711992.4882921773,
        "Argument of Periapsis(deg)": 0.0030573483185156866,
        "Eccentricity": 0.0,
        "Inclination(deg)": 45.0,
        "Latitude(deg)": -30.7459327392166,
        "Longitude(deg)": -121.45920840402795,
        "Mean Anomaly(deg)": 314.00485815274493,
        "RAAN(deg)": 14.997113952555956,
        "Satellite Name": "Constellation 1 85",
        "Satellite Number": 85,
        "Semi-Major Axis(m)": 7083131.272910544,
        "Time(s)": 51
    },
    {
        "Altitude(m)": 711978.8999151533,
        "Argument of Periapsis(deg)": 0.003117296324761092,
        "Eccentricity": 0.0,
        "Inclination(deg)": 45.0,
        "Latitude(deg)": -30.71123044119661,
        "Longitude(deg)": -121.40552276495606,
        "Mean Anomaly(deg)": 314.0655592929948,
        "RAAN(deg)": 14.997057363390384,
        "Satellite Name": "Constellation 1 85",
        "Satellite Number": 85,
        "Semi-Major Axis(m)": 7083131.272910544,
        "Time(s)": 52
    },
    {
        "Altitude(m)": 711965.3064932831,
        "Argument of Periapsis(deg)": 0.0031772443310064975,
        "Eccentricity": 0.0,
        "Inclination(deg)": 45.0,
        "Latitude(deg)": -30.67650218312625,
        "Longitude(deg)": -121.35187818782326,
        "Mean Anomaly(deg)": 314.12626043324474,
        "RAAN(deg)": 14.997000774224816,
        "Satellite Name": "Constellation 1 85",
        "Satellite Number": 85,
        "Semi-Major Axis(m)": 7083131.272910544,
        "Time(s)": 53
    },
    {
        "Altitude(m)": 711951.7080744228,
        "Argument of Periapsis(deg)": 0.0032371923372519038,
        "Eccentricity": 0.0,
        "Inclination(deg)": 45.0,
        "Latitude(deg)": -30.641748018251995,
        "Longitude(deg)": -121.29827478488399,
        "Mean Anomaly(deg)": 314.18696157349456,
        "RAAN(deg)": 14.996944185059245,
        "Satellite Name": "Constellation 1 85",
        "Satellite Number": 85,
        "Semi-Major Axis(m)": 7083131.272910544,
        "Time(s)": 54
    },
    {
        "Altitude(m)": 711938.1047064309,
        "Argument of Periapsis(deg)": 0.0032971403434973088,
        "Eccentricity": 0.0,
        "Inclination(deg)": 45.0,
        "Latitude(deg)": -30.60696799974855,
        "Longitude(deg)": -121.24471250022383,
        "Mean Anomaly(deg)": 314.2476627137445,
        "RAAN(deg)": 14.996887595893677,
        "Satellite Name": "Constellation 1 85",
        "Satellite Number": 85,
        "Semi-Major Axis(m)": 7083131.272910544,
        "Time(s)": 55
    },
    {
        "Altitude(m)": 711924.4964371694,
        "Argument of Periapsis(deg)": 0.0033570883497427146,
        "Eccentricity": 0.0,
        "Inclination(deg)": 45.0,
        "Latitude(deg)": -30.572162180718543,
        "Longitude(deg)": -121.19119127785773,
        "Mean Anomaly(deg)": 314.3083638539944,
        "RAAN(deg)": 14.996831006728108,
        "Satellite Name": "Constellation 1 85",
        "Satellite Number": 85,
        "Semi-Major Axis(m)": 7083131.272910544,
        "Time(s)": 56
    }
]